KUIPER-00104            
1 65142U 25171L   26016.21351631  .00001975  00000+0  31031-3 0  9993
2 65142  51.9026  29.7948 0004909  10.3356 349.7705 14.76680252 25128
KUIPER-00105            
1 65143U 25171M   26015.32066189 -.00006343  00000+0 -80360-3 0  9991
2 65143  51.8985  41.6459 0010738 295.3052  64.6797 14.79884752 24887
KUIPER-00106            
1 65144U 25171N   26016.30776651  .00005050  00000+0  45675-3 0  9995
2 65144  51.8955  32.9562 0008215 288.9776  71.0303 14.96931824 25092
KUIPER-00107            
1 65145U 25171P   26016.21746846  .00002714  00000+0  38491-3 0  9991
2 65145  51.9023  20.1219 0000789  57.9584 302.1455 14.79923156 25262
KUIPER-00108            
1 65146U 25171Q   26015.42743215 -.00020384  00000+0 -26585-2 0  9996
2 65146  51.9043  36.1230 0005475 318.7148  41.3400 14.79831099 24979
KUIPER-00109            
1 65147U 25171R   26016.27680422  .00018701  00000+0  24671-2 0  9993
2 65147  51.9043  27.3089 0011251 320.1151  39.8984 14.80034303 25160
KUIPER-00110            
1 65148U 25171S   26016.22957607  .00005183  00000+0  70785-3 0  9999
2 65148  51.9016  40.1152 0002477  13.2826 346.8201 14.79964219 24971
KUIPER-00111            
1 65149U 25171T   26015.38011278 -.00006972  00000+0 -88593-3 0  9996
2 65149  51.8991  48.7965 0007368 301.0433  58.9805 14.79926370 24781
