<?xml version="1.0" encoding="UTF-8"?>
<ndm xmlns:xsi="http://www.w3.org/2001/XMLSchema-instance" xsi:noNamespaceSchemaLocation="https://sanaregistry.org/r/ndmxml_unqualified/ndmxml-2.0.0-master-2.0.xsd">
<omm id="CCSDS_OMM_VERS" version="2.0">
<header><CREATION_DATE/><ORIGINATOR/></header><body><segment><metadata><OBJECT_NAME>KUIPER-00104</OBJECT_NAME><OBJECT_ID>2025-171L</OBJECT_ID><CENTER_NAME>EARTH</CENTER_NAME><REF_FRAME>TEME</REF_FRAME><TIME_SYSTEM>UTC</TIME_SYSTEM><MEAN_ELEMENT_THEORY>SGP4</MEAN_ELEMENT_THEORY></metadata><data><meanElements><EPOCH>2026-01-16T05:07:27.809184</EPOCH><MEAN_MOTION>14.76680252</MEAN_MOTION><ECCENTRICITY>.00049093</ECCENTRICITY><INCLINATION>51.9026</INCLINATION><RA_OF_ASC_NODE>29.7948</RA_OF_ASC_NODE><ARG_OF_PERICENTER>10.3356</ARG_OF_PERICENTER><MEAN_ANOMALY>349.7705</MEAN_ANOMALY></meanElements><tleParameters><EPHEMERIS_TYPE>0</EPHEMERIS_TYPE><CLASSIFICATION_TYPE>U</CLASSIFICATION_TYPE><NORAD_CAT_ID>65142</NORAD_CAT_ID><ELEMENT_SET_NO>999</ELEMENT_SET_NO><REV_AT_EPOCH>2512</REV_AT_EPOCH><BSTAR>.31031013E-3</BSTAR><MEAN_MOTION_DOT>.1975E-4</MEAN_MOTION_DOT><MEAN_MOTION_DDOT>0</MEAN_MOTION_DDOT></tleParameters></data></segment></body></omm>
<omm id="CCSDS_OMM_VERS" version="2.0">
<header><CREATION_DATE/><ORIGINATOR/></header><body><segment><metadata><OBJECT_NAME>KUIPER-00105</OBJECT_NAME><OBJECT_ID>2025-171M</OBJECT_ID><CENTER_NAME>EARTH</CENTER_NAME><REF_FRAME>TEME</REF_FRAME><TIME_SYSTEM>UTC</TIME_SYSTEM><MEAN_ELEMENT_THEORY>SGP4</MEAN_ELEMENT_THEORY></metadata><data><meanElements><EPOCH>2026-01-15T07:41:45.187296</EPOCH><MEAN_MOTION>14.79884752</MEAN_MOTION><ECCENTRICITY>.00107388</ECCENTRICITY><INCLINATION>51.8985</INCLINATION><RA_OF_ASC_NODE>41.6459</RA_OF_ASC_NODE><ARG_OF_PERICENTER>295.3052</ARG_OF_PERICENTER><MEAN_ANOMALY>64.6797</MEAN_ANOMALY></meanElements><tleParameters><EPHEMERIS_TYPE>0</EPHEMERIS_TYPE><CLASSIFICATION_TYPE>U</CLASSIFICATION_TYPE><NORAD_CAT_ID>65143</NORAD_CAT_ID><ELEMENT_SET_NO>999</ELEMENT_SET_NO><REV_AT_EPOCH>2488</REV_AT_EPOCH><BSTAR>-.80359773E-3</BSTAR><MEAN_MOTION_DOT>-.6343E-4</MEAN_MOTION_DOT><MEAN_MOTION_DDOT>0</MEAN_MOTION_DDOT></tleParameters></data></segment></body></omm>
<omm id="CCSDS_OMM_VERS" version="2.0">
<header><CREATION_DATE/><ORIGINATOR/></header><body><segment><metadata><OBJECT_NAME>KUIPER-00106</OBJECT_NAME><OBJECT_ID>2025-171N</OBJECT_ID><CENTER_NAME>EARTH</CENTER_NAME><REF_FRAME>TEME</REF_FRAME><TIME_SYSTEM>UTC</TIME_SYSTEM><MEAN_ELEMENT_THEORY>SGP4</MEAN_ELEMENT_THEORY></metadata><data><meanElements><EPOCH>2026-01-16T07:23:11.026464</EPOCH><MEAN_MOTION>14.96931824</MEAN_MOTION><ECCENTRICITY>.00082157</ECCENTRICITY><INCLINATION>51.8955</INCLINATION><RA_OF_ASC_NODE>32.9562</RA_OF_ASC_NODE><ARG_OF_PERICENTER>288.9776</ARG_OF_PERICENTER><MEAN_ANOMALY>71.0303</MEAN_ANOMALY></meanElements><tleParameters><EPHEMERIS_TYPE>0</EPHEMERIS_TYPE><CLASSIFICATION_TYPE>U</CLASSIFICATION_TYPE><NORAD_CAT_ID>65144</NORAD_CAT_ID><ELEMENT_SET_NO>999</ELEMENT_SET_NO><REV_AT_EPOCH>2509</REV_AT_EPOCH><BSTAR>.45674616E-3</BSTAR><MEAN_MOTION_DOT>.505E-4</MEAN_MOTION_DOT><MEAN_MOTION_DDOT>0</MEAN_MOTION_DDOT></tleParameters></data></segment></body></omm>
<omm id="CCSDS_OMM_VERS" version="2.0">
<header><CREATION_DATE/><ORIGINATOR/></header><body><segment><metadata><OBJECT_NAME>KUIPER-00107</OBJECT_NAME><OBJECT_ID>2025-171P</OBJECT_ID><CENTER_NAME>EARTH</CENTER_NAME><REF_FRAME>TEME</REF_FRAME><TIME_SYSTEM>UTC</TIME_SYSTEM><MEAN_ELEMENT_THEORY>SGP4</MEAN_ELEMENT_THEORY></metadata><data><meanElements><EPOCH>2026-01-16T05:13:09.274944</EPOCH><MEAN_MOTION>14.79923156</MEAN_MOTION><ECCENTRICITY>.00007893</ECCENTRICITY><INCLINATION>51.9023</INCLINATION><RA_OF_ASC_NODE>20.1219</RA_OF_ASC_NODE><ARG_OF_PERICENTER>57.9584</ARG_OF_PERICENTER><MEAN_ANOMALY>302.1455</MEAN_ANOMALY></meanElements><tleParameters><EPHEMERIS_TYPE>0</EPHEMERIS_TYPE><CLASSIFICATION_TYPE>U</CLASSIFICATION_TYPE><NORAD_CAT_ID>65145</NORAD_CAT_ID><ELEMENT_SET_NO>999</ELEMENT_SET_NO><REV_AT_EPOCH>2526</REV_AT_EPOCH><BSTAR>.3849133E-3</BSTAR><MEAN_MOTION_DOT>.2714E-4</MEAN_MOTION_DOT><MEAN_MOTION_DDOT>0</MEAN_MOTION_DDOT></tleParameters></data></segment></body></omm>
<omm id="CCSDS_OMM_VERS" version="2.0">
<header><CREATION_DATE/><ORIGINATOR/></header><body><segment><metadata><OBJECT_NAME>KUIPER-00108</OBJECT_NAME><OBJECT_ID>2025-171Q</OBJECT_ID><CENTER_NAME>EARTH</CENTER_NAME><REF_FRAME>TEME</REF_FRAME><TIME_SYSTEM>UTC</TIME_SYSTEM><MEAN_ELEMENT_THEORY>SGP4</MEAN_ELEMENT_THEORY></metadata><data><meanElements><EPOCH>2026-01-15T10:15:30.137760</EPOCH><MEAN_MOTION>14.79831099</MEAN_MOTION><ECCENTRICITY>.00054755</ECCENTRICITY><INCLINATION>51.9043</INCLINATION><RA_OF_ASC_NODE>36.1230</RA_OF_ASC_NODE><ARG_OF_PERICENTER>318.7148</ARG_OF_PERICENTER><MEAN_ANOMALY>41.3400</MEAN_ANOMALY></meanElements><tleParameters><EPHEMERIS_TYPE>0</EPHEMERIS_TYPE><CLASSIFICATION_TYPE>U</CLASSIFICATION_TYPE><NORAD_CAT_ID>65146</NORAD_CAT_ID><ELEMENT_SET_NO>999</ELEMENT_SET_NO><REV_AT_EPOCH>2497</REV_AT_EPOCH><BSTAR>-.26585104E-2</BSTAR><MEAN_MOTION_DOT>-.20384E-3</MEAN_MOTION_DOT><MEAN_MOTION_DDOT>0</MEAN_MOTION_DDOT></tleParameters></data></segment></body></omm>
<omm id="CCSDS_OMM_VERS" version="2.0">
<header><CREATION_DATE/><ORIGINATOR/></header><body><segment><metadata><OBJECT_NAME>KUIPER-00109</OBJECT_NAME><OBJECT_ID>2025-171R</OBJECT_ID><CENTER_NAME>EARTH</CENTER_NAME><REF_FRAME>TEME</REF_FRAME><TIME_SYSTEM>UTC</TIME_SYSTEM><MEAN_ELEMENT_THEORY>SGP4</MEAN_ELEMENT_THEORY></metadata><data><meanElements><EPOCH>2026-01-16T06:38:35.884608</EPOCH><MEAN_MOTION>14.80034303</MEAN_MOTION><ECCENTRICITY>.00112516</ECCENTRICITY><INCLINATION>51.9043</INCLINATION><RA_OF_ASC_NODE>27.3089</RA_OF_ASC_NODE><ARG_OF_PERICENTER>320.1151</ARG_OF_PERICENTER><MEAN_ANOMALY>39.8984</MEAN_ANOMALY></meanElements><tleParameters><EPHEMERIS_TYPE>0</EPHEMERIS_TYPE><CLASSIFICATION_TYPE>U</CLASSIFICATION_TYPE><NORAD_CAT_ID>65147</NORAD_CAT_ID><ELEMENT_SET_NO>999</ELEMENT_SET_NO><REV_AT_EPOCH>2516</REV_AT_EPOCH><BSTAR>.24671158E-2</BSTAR><MEAN_MOTION_DOT>.18701E-3</MEAN_MOTION_DOT><MEAN_MOTION_DDOT>0</MEAN_MOTION_DDOT></tleParameters></data></segment></body></omm>
<omm id="CCSDS_OMM_VERS" version="2.0">
<header><CREATION_DATE/><ORIGINATOR/></header><body><segment><metadata><OBJECT_NAME>KUIPER-00110</OBJECT_NAME><OBJECT_ID>2025-171S</OBJECT_ID><CENTER_NAME>EARTH</CENTER_NAME><REF_FRAME>TEME</REF_FRAME><TIME_SYSTEM>UTC</TIME_SYSTEM><MEAN_ELEMENT_THEORY>SGP4</MEAN_ELEMENT_THEORY></metadata><data><meanElements><EPOCH>2026-01-16T05:30:35.372448</EPOCH><MEAN_MOTION>14.79964219</MEAN_MOTION><ECCENTRICITY>.00024771</ECCENTRICITY><INCLINATION>51.9016</INCLINATION><RA_OF_ASC_NODE>40.1152</RA_OF_ASC_NODE><ARG_OF_PERICENTER>13.2826</ARG_OF_PERICENTER><MEAN_ANOMALY>346.8201</MEAN_ANOMALY></meanElements><tleParameters><EPHEMERIS_TYPE>0</EPHEMERIS_TYPE><CLASSIFICATION_TYPE>U</CLASSIFICATION_TYPE><NORAD_CAT_ID>65148</NORAD_CAT_ID><ELEMENT_SET_NO>999</ELEMENT_SET_NO><REV_AT_EPOCH>2497</REV_AT_EPOCH><BSTAR>.70785406E-3</BSTAR><MEAN_MOTION_DOT>.5183E-4</MEAN_MOTION_DOT><MEAN_MOTION_DDOT>0</MEAN_MOTION_DDOT></tleParameters></data></segment></body></omm>
<omm id="CCSDS_OMM_VERS" version="2.0">
<header><CREATION_DATE/><ORIGINATOR/></header><body><segment><metadata><OBJECT_NAME>KUIPER-00111</OBJECT_NAME><OBJECT_ID>2025-171T</OBJECT_ID><CENTER_NAME>EARTH</CENTER_NAME><REF_FRAME>TEME</REF_FRAME><TIME_SYSTEM>UTC</TIME_SYSTEM><MEAN_ELEMENT_THEORY>SGP4</MEAN_ELEMENT_THEORY></metadata><data><meanElements><EPOCH>2026-01-15T09:07:21.744192</EPOCH><MEAN_MOTION>14.79926370</MEAN_MOTION><ECCENTRICITY>.00073684</ECCENTRICITY><INCLINATION>51.8991</INCLINATION><RA_OF_ASC_NODE>48.7965</RA_OF_ASC_NODE><ARG_OF_PERICENTER>301.0433</ARG_OF_PERICENTER><MEAN_ANOMALY>58.9805</MEAN_ANOMALY></meanElements><tleParameters><EPHEMERIS_TYPE>0</EPHEMERIS_TYPE><CLASSIFICATION_TYPE>U</CLASSIFICATION_TYPE><NORAD_CAT_ID>65149</NORAD_CAT_ID><ELEMENT_SET_NO>999</ELEMENT_SET_NO><REV_AT_EPOCH>2478</REV_AT_EPOCH><BSTAR>-.88593356E-3</BSTAR><MEAN_MOTION_DOT>-.6972E-4</MEAN_MOTION_DOT><MEAN_MOTION_DDOT>0</MEAN_MOTION_DDOT></tleParameters></data></segment></body></omm>

</ndm>
